0 SCOUT G-1 DEB
1 19181U 88033G   13285.64726197  .00000180  00000-0  36289-3 0  9623
2 19181 089.9333 331.8457 0249052 252.4969 104.8682 13.20726402226069
0 SCOUT G-1 DEB
1 19181U 88033G   13288.08457531  .00000170  00000-0  34002-3 0  9638
2 19181 089.9288 331.8299 0249963 245.5091 173.6621 13.20728404226399
0 SCOUT G-1 DEB
1 19181U 88033G   13290.12912885  .00000155  00000-0  30936-3 0  9640
2 19181 089.9282 331.8159 0250052 239.8638 174.7626 13.20729600226668
0 SCOUT G-1 DEB
1 19181U 88033G   13293.08577155  .00000180  00000-0  36165-3 0  9654
2 19181 089.9278 331.7952 0250317 231.7119 192.5219 13.20729924227051
